[{"OBJECT_NAME":"COSMOS 2547","OBJECT_ID":"2020-075A","EPOCH":"2026-04-25T20:33:14.486688","MEAN_MOTION":2.13100244,"ECCENTRICITY":0.0008353,"INCLINATION":64.5969,"RA_OF_ASC_NODE":194.2211,"ARG_OF_PERICENTER":236.9134,"MEAN_ANOMALY":123.0532,"EPHEMERIS_TYPE":0,"CLASSIFICATION_TYPE":"U","NORAD_CAT_ID":46805,"ELEMENT_SET_NO":999,"REV_AT_EPOCH":4279,"BSTAR":0,"MEAN_MOTION_DOT":-1.5e-7,"MEAN_MOTION_DDOT":0},{"OBJECT_NAME":"GPS BIII-4","OBJECT_ID":"2020-078A","EPOCH":"2026-04-22T22:15:39.157056","MEAN_MOTION":2.00564823,"ECCENTRICITY":0.0070939,"INCLINATION":53.9891,"RA_OF_ASC_NODE":213.0193,"ARG_OF_PERICENTER":205.6597,"MEAN_ANOMALY":155.6852,"EPHEMERIS_TYPE":0,"CLASSIFICATION_TYPE":"U","NORAD_CAT_ID":46826,"ELEMENT_SET_NO":999,"REV_AT_EPOCH":4040,"BSTAR":0,"MEAN_MOTION_DOT":-1.7e-7,"MEAN_MOTION_DDOT":0},{"OBJECT_NAME":"GSAT0223 (GALILEO 27)","OBJECT_ID":"2021-116A","EPOCH":"2026-04-24T07:45:19.739232","MEAN_MOTION":1.7047548,"ECCENTRICITY":2.341e-5,"INCLINATION":57.1776,"RA_OF_ASC_NODE":343.1299,"ARG_OF_PERICENTER":233.2925,"MEAN_ANOMALY":308.954,"EPHEMERIS_TYPE":0,"CLASSIFICATION_TYPE":"U","NORAD_CAT_ID":49809,"ELEMENT_SET_NO":999,"REV_AT_EPOCH":2726,"BSTAR":0,"MEAN_MOTION_DOT":-8.8e-7,"MEAN_MOTION_DDOT":0},{"OBJECT_NAME":"GSAT0224 (GALILEO 28)","OBJECT_ID":"2021-116B","EPOCH":"2026-04-24T17:19:56.422848","MEAN_MOTION":1.70475626,"ECCENTRICITY":6.258e-5,"INCLINATION":57.1774,"RA_OF_ASC_NODE":343.118,"ARG_OF_PERICENTER":14.3979,"MEAN_ANOMALY":165.3634,"EPHEMERIS_TYPE":0,"CLASSIFICATION_TYPE":"U","NORAD_CAT_ID":49810,"ELEMENT_SET_NO":999,"REV_AT_EPOCH":2729,"BSTAR":0,"MEAN_MOTION_DOT":-8.9e-7,"MEAN_MOTION_DDOT":0},{"OBJECT_NAME":"GOES 18","OBJECT_ID":"2022-021A","EPOCH":"2026-04-25T16:22:53.166720","MEAN_MOTION":1.00271801,"ECCENTRICITY":3.86e-5,"INCLINATION":0.0124,"RA_OF_ASC_NODE":93.6914,"ARG_OF_PERICENTER":357.8405,"MEAN_ANOMALY":230.8777,"EPHEMERIS_TYPE":0,"CLASSIFICATION_TYPE":"U","NORAD_CAT_ID":51850,"ELEMENT_SET_NO":999,"REV_AT_EPOCH":606,"BSTAR":0,"MEAN_MOTION_DOT":8.3e-7,"MEAN_MOTION_DDOT":0},{"OBJECT_NAME":"COSMOS 2557 (706K)","OBJECT_ID":"2022-075A","EPOCH":"2026-04-25T01:58:56.761824","MEAN_MOTION":2.1310182,"ECCENTRICITY":0.001022,"INCLINATION":64.3294,"RA_OF_ASC_NODE":316.3562,"ARG_OF_PERICENTER":281.4601,"MEAN_ANOMALY":78.4529,"EPHEMERIS_TYPE":0,"CLASSIFICATION_TYPE":"U","NORAD_CAT_ID":52984,"ELEMENT_SET_NO":999,"REV_AT_EPOCH":2958,"BSTAR":0,"MEAN_MOTION_DOT":-2.7e-7,"MEAN_MOTION_DDOT":0},{"OBJECT_NAME":"METEOSAT-12 (MTG-I1)","OBJECT_ID":"2022-170C","EPOCH":"2026-04-25T20:27:16.927200","MEAN_MOTION":1.0026928,"ECCENTRICITY":0.0001131,"INCLINATION":0.7233,"RA_OF_ASC_NODE":22.2267,"ARG_OF_PERICENTER":330.7697,"MEAN_ANOMALY":167.3619,"EPHEMERIS_TYPE":0,"CLASSIFICATION_TYPE":"U","NORAD_CAT_ID":54743,"ELEMENT_SET_NO":999,"REV_AT_EPOCH":1245,"BSTAR":0,"MEAN_MOTION_DOT":-2.1e-7,"MEAN_MOTION_DDOT":0},{"OBJECT_NAME":"METEOR-M2 3","OBJECT_ID":"2023-091A","EPOCH":"2026-04-25T13:00:46.207872","MEAN_MOTION":14.2404211,"ECCENTRICITY":0.0003315,"INCLINATION":98.6132,"RA_OF_ASC_NODE":171.5863,"ARG_OF_PERICENTER":339.9288,"MEAN_ANOMALY":20.176,"EPHEMERIS_TYPE":0,"CLASSIFICATION_TYPE":"U","NORAD_CAT_ID":57166,"ELEMENT_SET_NO":999,"REV_AT_EPOCH":14702,"BSTAR":1.2618e-5,"MEAN_MOTION_DOT":-1.4e-7,"MEAN_MOTION_DDOT":0},{"OBJECT_NAME":"COSMOS 2569 (703K)","OBJECT_ID":"2023-114A","EPOCH":"2026-04-25T05:27:15.958656","MEAN_MOTION":2.13103736,"ECCENTRICITY":0.0012443,"INCLINATION":65.2739,"RA_OF_ASC_NODE":74.4052,"ARG_OF_PERICENTER":295.3308,"MEAN_ANOMALY":64.5212,"EPHEMERIS_TYPE":0,"CLASSIFICATION_TYPE":"U","NORAD_CAT_ID":57517,"ELEMENT_SET_NO":999,"REV_AT_EPOCH":2113,"BSTAR":0,"MEAN_MOTION_DOT":1.5e-7,"MEAN_MOTION_DDOT":0},{"OBJECT_NAME":"METEOR-M2 4","OBJECT_ID":"2024-039A","EPOCH":"2026-04-25T20:22:23.001312","MEAN_MOTION":14.22423806,"ECCENTRICITY":0.0006491,"INCLINATION":98.6975,"RA_OF_ASC_NODE":75.8166,"ARG_OF_PERICENTER":330.1006,"MEAN_ANOMALY":29.98,"EPHEMERIS_TYPE":0,"CLASSIFICATION_TYPE":"U","NORAD_CAT_ID":59051,"ELEMENT_SET_NO":999,"REV_AT_EPOCH":11182,"BSTAR":2.4453e-5,"MEAN_MOTION_DOT":1.1e-7,"MEAN_MOTION_DDOT":0},{"OBJECT_NAME":"GSAT0225 (GALILEO 29)","OBJECT_ID":"2024-079A","EPOCH":"2026-04-24T10:41:02.450400","MEAN_MOTION":1.70474282,"ECCENTRICITY":0.00026494,"INCLINATION":55.0858,"RA_OF_ASC_NODE":102.5798,"ARG_OF_PERICENTER":282.4713,"MEAN_ANOMALY":80.4437,"EPHEMERIS_TYPE":0,"CLASSIFICATION_TYPE":"U","NORAD_CAT_ID":59598,"ELEMENT_SET_NO":999,"REV_AT_EPOCH":1240,"BSTAR":0,"MEAN_MOTION_DOT":4.4e-7,"MEAN_MOTION_DDOT":0},{"OBJECT_NAME":"GSAT0227 (GALILEO 30)","OBJECT_ID":"2024-079C","EPOCH":"2026-04-25T05:02:58.066656","MEAN_MOTION":1.70474357,"ECCENTRICITY":0.0001229,"INCLINATION":55.0821,"RA_OF_ASC_NODE":102.5574,"ARG_OF_PERICENTER":13.4677,"MEAN_ANOMALY":346.5305,"EPHEMERIS_TYPE":0,"CLASSIFICATION_TYPE":"U","NORAD_CAT_ID":59600,"ELEMENT_SET_NO":999,"REV_AT_EPOCH":1246,"BSTAR":0,"MEAN_MOTION_DOT":4.4e-7,"MEAN_MOTION_DDOT":0},{"OBJECT_NAME":"GSAT0232 (GALILEO 32)","OBJECT_ID":"2024-167A","EPOCH":"2026-04-25T10:48:14.679360","MEAN_MOTION":1.70474394,"ECCENTRICITY":0.0004845,"INCLINATION":55.2008,"RA_OF_ASC_NODE":222.7596,"ARG_OF_PERICENTER":214.4336,"MEAN_ANOMALY":148.2272,"EPHEMERIS_TYPE":0,"CLASSIFICATION_TYPE":"U","NORAD_CAT_ID":61182,"ELEMENT_SET_NO":999,"REV_AT_EPOCH":998,"BSTAR":0,"MEAN_MOTION_DOT":-3.7e-7,"MEAN_MOTION_DDOT":0},{"OBJECT_NAME":"GSAT0226 (GALILEO 31)","OBJECT_ID":"2024-167B","EPOCH":"2026-04-25T07:13:12.381600","MEAN_MOTION":1.70474349,"ECCENTRICITY":0.0001807,"INCLINATION":55.1996,"RA_OF_ASC_NODE":222.7709,"ARG_OF_PERICENTER":193.6937,"MEAN_ANOMALY":168.6615,"EPHEMERIS_TYPE":0,"CLASSIFICATION_TYPE":"U","NORAD_CAT_ID":61183,"ELEMENT_SET_NO":999,"REV_AT_EPOCH":995,"BSTAR":0,"MEAN_MOTION_DOT":-3.6e-7,"MEAN_MOTION_DDOT":0},{"OBJECT_NAME":"GSAT0233 (GALILEO 33)","OBJECT_ID":"2025-302A","EPOCH":"2026-04-25T10:08:21.573024","MEAN_MOTION":1.70474372,"ECCENTRICITY":0.0002102,"INCLINATION":54.3016,"RA_OF_ASC_NODE":103.6322,"ARG_OF_PERICENTER":244.4795,"MEAN_ANOMALY":289.0042,"EPHEMERIS_TYPE":0,"CLASSIFICATION_TYPE":"U","NORAD_CAT_ID":67160,"ELEMENT_SET_NO":999,"REV_AT_EPOCH":222,"BSTAR":0,"MEAN_MOTION_DOT":4.4e-7,"MEAN_MOTION_DDOT":0},{"OBJECT_NAME":"GSAT0234 (GALILEO 34)","OBJECT_ID":"2025-302C","EPOCH":"2026-04-24T13:27:31.000608","MEAN_MOTION":1.70474332,"ECCENTRICITY":0.00039067,"INCLINATION":54.3036,"RA_OF_ASC_NODE":103.6556,"ARG_OF_PERICENTER":293.1512,"MEAN_ANOMALY":251.5938,"EPHEMERIS_TYPE":0,"CLASSIFICATION_TYPE":"U","NORAD_CAT_ID":67162,"ELEMENT_SET_NO":999,"REV_AT_EPOCH":226,"BSTAR":0,"MEAN_MOTION_DOT":4.3e-7,"MEAN_MOTION_DDOT":0}]
